{"type": "FeatureCollection", "name": "barrios2", "crs": {"type": "name", "properties": {"name": "urn:ogc:def:crs:OGC:1.3:CRS84"}}, "features": [{"type": "Feature", "properties": {"fid": 1, "Nombre_barrio": "1"}, "geometry": {"type": "Polygon", "coordinates": [[[-72.64751255606662, -41.69416396524156], [-72.436995392468, -41.65397432491818], [-72.32982301827234, -41.35829339968194], [-72.23413339845479, -41.40135372859984], [-72.32503853728146, -41.732439813168575], [-72.62741773590493, -41.75062084093391], [-72.64655565986844, -41.730526020772224], [-72.64751255606662, -41.69416396524156]]]}, "id": "1"}, {"type": "Feature", "properties": {"fid": 2, "Nombre_barrio": "2"}, "geometry": {"type": "Polygon", "coordinates": [[[-72.58663003545767, -41.68268121086345], [-72.80468275661696, -41.42970177847076], [-73.14773004366295, -41.48747438643559], [-73.00742513860547, -41.86721266208039], [-72.80683577306289, -41.97073686952053], [-72.62741212909093, -41.75062457880923], [-72.64655519263366, -41.73052555353725], [-72.6475139577696, -41.69417097375817], [-72.58663003545767, -41.68268121086345]]]}, "id": "2"}, {"type": "Feature", "properties": {"fid": 3, "Nombre_barrio": "3A"}, "geometry": {"type": "Polygon", "coordinates": [[[-73.0074265403074, -41.86717481608717], [-73.04636025437055, -41.900748416290234], [-73.1618830430453, -41.80153024174217], [-73.1299242051766, -41.76879766358826], [-73.25782683841518, -41.701986872001754], [-73.09406302499976, -41.63255209162185], [-73.0074265403074, -41.86717481608717]]]}, "id": "3A"}, {"type": "Feature", "properties": {"fid": 4, "Nombre_barrio": "3B"}, "geometry": {"type": "Polygon", "coordinates": [[[-73.04629297260655, -41.90073720266286], [-73.0973430109915, -41.94543752457654], [-73.47982932618086, -41.799225841327406], [-73.257732486254, -41.70197346821284], [-73.12992575745363, -41.76880010288067], [-73.16188159753868, -41.80153097270856], [-73.04629297260655, -41.90073720266286]]]}, "id": "3B"}, {"type": "Feature", "properties": {"fid": 5, "Nombre_barrio": "6"}, "geometry": {"type": "Polygon", "coordinates": [[[-73.35857948944964, -41.84559457358361], [-73.41148109043978, -42.0911559286827], [-73.60078792617617, -41.94612890383548], [-73.48348900406114, -41.799664913971434], [-73.47923132993719, -41.79923914655904], [-73.35857948944964, -41.84559457358361]]]}, "id": "6"}, {"type": "Feature", "properties": {"fid": 6, "Nombre_barrio": "5"}, "geometry": {"type": "Polygon", "coordinates": [[[-73.53415532613623, -41.791468891282804], [-73.74985974144109, -41.922285928741324], [-73.98419148103827, -41.862199502666996], [-74.02235088537422, -41.836068027731244], [-73.9786032837506, -41.73920594141126], [-73.53415532613623, -41.791468891282804]]]}, "id": "5"}, {"type": "Feature", "properties": {"fid": 7, "Nombre_barrio": "4A"}, "geometry": {"type": "Polygon", "coordinates": [[[-73.48918364320195, -41.54367225726864], [-73.51393137404746, -41.66517563258101], [-73.80898819083754, -41.64042790173553], [-73.83676951449635, -41.538243722760605], [-73.48918364320195, -41.54367225726864]]]}, "id": "4A"}, {"type": "Feature", "properties": {"fid": 8, "Nombre_barrio": "7"}, "geometry": {"type": "Polygon", "coordinates": [[[-73.5388387676726, -42.122928821832744], [-73.41142786951325, -42.09099626590308], [-73.19173188471713, -42.12915567023906], [-73.41749505513985, -42.2806756481253], [-73.5388387676726, -42.122928821832744]]]}, "id": "7"}, {"type": "Feature", "properties": {"fid": 9, "Nombre_barrio": "8"}, "geometry": {"type": "Polygon", "coordinates": [[[-73.41717572958058, -42.28083531090495], [-73.3489198912809, -42.3371962721208], [-73.10240055950395, -42.427804899571235], [-72.90733255846865, -42.180607000980736], [-73.19217095736126, -42.129195585933985], [-73.41717572958058, -42.28083531090495]]]}, "id": "8"}, {"type": "Feature", "properties": {"fid": 10, "Nombre_barrio": "9A"}, "geometry": {"type": "Polygon", "coordinates": [[[-73.34911946975555, -42.33723618781574], [-73.34033801687487, -42.39247950957407], [-73.38552258351531, -42.42042049601252], [-73.36301013158493, -42.58479332766048], [-73.38887550188795, -42.584553833491], [-73.39007297273533, -42.554138073968], [-73.68968017874539, -42.36445869174581], [-73.41737530805516, -42.28063573243043], [-73.34911946975555, -42.33723618781574]]]}, "id": "9A"}, {"type": "Feature", "properties": {"fid": 11, "Nombre_barrio": "9B"}, "geometry": {"type": "Polygon", "coordinates": [[[-73.10238060165652, -42.42789470988482], [-73.05505056641452, -42.52551852071604], [-73.37109305980464, -42.52560833102958], [-73.38555252028652, -42.420440453859975], [-73.34028812225625, -42.39235227829653], [-73.34907830669515, -42.33711893546193], [-73.10238060165652, -42.42789470988482]]]}, "id": "9B"}, {"type": "Feature", "properties": {"fid": 12, "Nombre_barrio": "9C"}, "geometry": {"type": "Polygon", "coordinates": [[[-73.37090221288835, -42.52572059392159], [-73.3554099338006, -42.636187279590814], [-73.25356503823238, -42.70516160039892], [-73.05512915043875, -42.52558587845125], [-73.37090221288835, -42.52572059392159]]]}, "id": "9C"}, {"type": "Feature", "properties": {"fid": 13, "Nombre_barrio": "10A"}, "geometry": {"type": "Polygon", "coordinates": [[[-73.2535650382324, -42.70516160039892], [-73.56347797772274, -42.70509424266375], [-73.59237444610814, -42.63665878373694], [-73.87877953602616, -42.53548746552036], [-73.68967269455278, -42.36449985480609], [-73.3900654885426, -42.554280273631115], [-73.38887830846028, -42.584557575587425], [-73.36277718608412, -42.58476806850981], [-73.35540151408365, -42.63616202044015], [-73.2535650382324, -42.70516160039892]]]}, "id": "10A"}, {"type": "Feature", "properties": {"fid": 14, "Nombre_barrio": "10B"}, "geometry": {"type": "Polygon", "coordinates": [[[-73.25357345794909, -42.70517002011596], [-73.56345271857236, -42.705068983513215], [-73.59234918695783, -42.6366672034539], [-73.87875427687639, -42.53552956410473], [-73.64581438924458, -42.739808735424205], [-73.40575142111905, -42.851656254664505], [-73.25357345794909, -42.70517002011596]]]}, "id": "10B"}, {"type": "Feature", "properties": {"fid": 15, "Nombre_barrio": "11"}, "geometry": {"type": "Polygon", "coordinates": [[[-73.64581438924455, -42.73978347627356], [-73.77769241497933, -42.84241140551325], [-73.66776459119123, -43.04165558612923], [-73.36601877708904, -43.17406405402842], [-73.18541584967981, -42.95547136398654], [-73.64581438924455, -42.73978347627356]]]}, "id": "11"}, {"type": "Feature", "properties": {"fid": 16, "Nombre_barrio": "12A"}, "geometry": {"type": "Polygon", "coordinates": [[[-73.36586722218489, -43.1741145723298], [-73.55359323008776, -43.32718502549063], [-73.84700352446336, -43.22089451940141], [-73.66837081080769, -43.04074625670454], [-73.6676130362871, -43.04170610443063], [-73.36586722218489, -43.1741145723298]]]}, "id": "12A"}, {"type": "Feature", "properties": {"fid": 17, "Nombre_barrio": "12B"}, "geometry": {"type": "Polygon", "coordinates": [[[-73.55358060051245, -43.327273432518076], [-73.75651261712872, -43.52101743307201], [-73.90211899126173, -43.355140590513024], [-73.846763562532, -43.22067350183285], [-73.55358060051245, -43.327273432518076]]]}, "id": "12B"}, {"type": "Feature", "properties": {"fid": 18, "Nombre_barrio": "12C"}, "geometry": {"type": "Polygon", "coordinates": [[[-73.90200532508364, -43.35508375742398], [-74.38855340039686, -43.28097340930944], [-74.27443255759478, -43.50375911836536], [-73.75656945021785, -43.52080904507883], [-73.90200532508364, -43.35508375742398]]]}, "id": "12C"}, {"type": "Feature", "properties": {"fid": 19, "Nombre_barrio": "17B"}, "geometry": {"type": "Polygon", "coordinates": [[[-72.80680328264434, -41.97074337446886], [-72.61584410345351, -42.12783003258888], [-72.43579687735937, -42.1421519710282], [-72.420110944783, -41.95210212126213], [-72.80680328264434, -41.97074337446886]]]}, "id": "17B"}, {"type": "Feature", "properties": {"fid": 20, "Nombre_barrio": "17A"}, "geometry": {"type": "Polygon", "coordinates": [[[-72.61578727036449, -42.127830032588875], [-72.85153092372262, -42.24558819308985], [-72.77696591089574, -42.30674059690213], [-72.61840159246054, -42.237063229733124], [-72.39675254518548, -42.543961910575476], [-72.22932226485929, -42.15982706172112], [-72.61578727036449, -42.127830032588875]]]}, "id": "17A"}, {"type": "Feature", "properties": {"fid": 21, "Nombre_barrio": "16"}, "geometry": {"type": "Polygon", "coordinates": [[[-72.85130359136643, -42.24644068942551], [-72.86357953860009, -42.60329565553829], [-72.8296501844403, -42.62409656612871], [-72.7853203749853, -42.5177050234367], [-72.49206163551375, -42.609433629155134], [-72.44091185537336, -42.57371403269043], [-72.85130359136643, -42.24644068942551]]]}, "id": "16"}, {"type": "Feature", "properties": {"fid": 22, "Nombre_barrio": "14"}, "geometry": {"type": "Polygon", "coordinates": [[[-72.86353691378334, -42.60329565553826], [-72.87764572813872, -43.102901133059476], [-72.67796977391563, -43.11306715186239], [-72.71492549006709, -42.69319139413487], [-72.86353691378334, -42.60329565553826]]]}, "id": "14"}, {"type": "Feature", "properties": {"fid": 23, "Nombre_barrio": "15"}, "geometry": {"type": "Polygon", "coordinates": [[[-72.86338772692457, -42.603423529988454], [-73.00328237560856, -42.51595740594836], [-73.18959544976997, -42.74370180202351], [-72.87054869614421, -42.85303445707361], [-72.86338772692457, -42.603423529988454]]]}, "id": "15"}, {"type": "Feature", "properties": {"fid": 24, "Nombre_barrio": "13"}, "geometry": {"type": "Polygon", "coordinates": [[[-72.901813999255, -43.1236807312415], [-72.74452842532327, -43.1620430663468], [-73.04912536605936, -43.45871179116112], [-73.13876535575538, -43.44477347607286], [-72.901813999255, -43.1236807312415]]]}, "id": "13"}, {"type": "Feature", "properties": {"fid": 25, "Nombre_barrio": "35"}, "geometry": {"type": "Polygon", "coordinates": [[[-72.86038267734129, -43.793210040871294], [-73.00402830990224, -43.890820871305884], [-73.19498748909307, -43.840097339333326], [-73.01425826593032, -43.74589649424143], [-72.86038267734129, -43.793210040871294]]]}, "id": "35"}, {"type": "Feature", "properties": {"fid": 26, "Nombre_barrio": "34"}, "geometry": {"type": "Polygon", "coordinates": [[[-73.00402830990225, -43.8908208713059], [-73.05517809004263, -44.11950301335022], [-73.23931729854806, -44.19260457413421], [-73.18688877390414, -44.24982839066626], [-73.31295166954179, -44.25185306946349], [-73.30986137032495, -43.92758477578176], [-73.1946678029671, -43.84009733933328], [-73.00402830990225, -43.8908208713059]]]}, "id": "34"}, {"type": "Feature", "properties": {"fid": 27, "Nombre_barrio": "33"}, "geometry": {"type": "Polygon", "coordinates": [[[-73.05517809004252, -44.11950301335018], [-73.23930730835656, -44.192601244070374], [-73.1868987640954, -44.24982506060251], [-73.31289505845697, -44.25182309888922], [-73.30746039431708, -44.2895460617428], [-73.116447934105, -44.44539304810825], [-72.7331442691774, -44.52323661975953], [-72.65498101140027, -44.42221580398212], [-73.05517809004252, -44.11950301335018]]]}, "id": "33"}, {"type": "Feature", "properties": {"fid": 28, "Nombre_barrio": "32"}, "geometry": {"type": "Polygon", "coordinates": [[[-72.73314426917737, -44.52315669822801], [-72.57118328565456, -44.31851761690048], [-72.52071283853158, -44.34225431174691], [-72.5361776548709, -44.53046951835751], [-72.6829135866488, -44.73954424468163], [-73.13055408440927, -44.97451354720187], [-73.23173474324962, -44.96036743613177], [-73.29503259617343, -44.925481687645345], [-73.11089338766779, -44.8355699647422], [-72.9512101677918, -44.560799739550184], [-72.73314426917737, -44.52315669822801]]]}, "id": "32"}, {"type": "Feature", "properties": {"fid": 29, "Nombre_barrio": "31B"}, "geometry": {"type": "Polygon", "coordinates": [[[-73.11646791448777, -44.445353087342546], [-73.10280133260649, -44.574646144877285], [-73.16250271661416, -44.71194134575039], [-73.46676398691841, -44.65844387062304], [-73.30744041393409, -44.28962598327431], [-73.11646791448777, -44.445353087342546]]]}, "id": "31B"}, {"type": "Feature", "properties": {"fid": 30, "Nombre_barrio": "31A"}, "geometry": {"type": "Polygon", "coordinates": [[[-73.16259262833714, -44.711941345750404], [-73.11089338766784, -44.83548005301935], [-73.29467294928192, -44.92539177592256], [-73.42090900823793, -44.847348400442655], [-73.46694381036434, -44.65817413545442], [-73.16259262833714, -44.711941345750404]]]}, "id": "31A"}, {"type": "Feature", "properties": {"fid": 31, "Nombre_barrio": "30A"}, "geometry": {"type": "Polygon", "coordinates": [[[-73.2317347432497, -44.95955823062578], [-73.29467294928192, -44.925032129030974], [-73.52502678335978, -44.878637680012964], [-73.43979047004761, -45.25878444444747], [-73.27435289990582, -45.23468810270943], [-73.2317347432497, -44.95955823062578]]]}, "id": "30A"}, {"type": "Feature", "properties": {"fid": 32, "Nombre_barrio": "28B"}, "geometry": {"type": "Polygon", "coordinates": [[[-73.30245031331307, -45.23882404196299], [-73.28257982255145, -45.413612431286644], [-72.93336269079573, -45.4794278124517], [-72.69815362368115, -45.47897825383719], [-72.70588603185082, -45.35651848724312], [-72.82708703432426, -45.357057957580544], [-73.14591400373872, -45.21913337464716], [-73.30245031331307, -45.23882404196299]]]}, "id": "28B"}, {"type": "Feature", "properties": {"fid": 33, "Nombre_barrio": "28C"}, "geometry": {"type": "Polygon", "coordinates": [[[-73.28257982255145, -45.41352251956369], [-73.37806607227456, -45.396439292212094], [-73.38669759767326, -45.374321008377926], [-73.29300958240823, -45.314439800924454], [-73.28257982255145, -45.41352251956369]]]}, "id": "28C"}, {"type": "Feature", "properties": {"fid": 34, "Nombre_barrio": "26B"}, "geometry": {"type": "Polygon", "coordinates": [[[-73.28253486669001, -45.413657387148035], [-73.56481272074434, -45.77195560291695], [-73.69248736726678, -45.714771747150564], [-73.64681221203196, -45.34649333013938], [-73.28253486669001, -45.413657387148035]]]}, "id": "26B"}, {"type": "Feature", "properties": {"fid": 35, "Nombre_barrio": "27"}, "geometry": {"type": "Polygon", "coordinates": [[[-73.56481272074431, -45.77195560291696], [-73.51733933105147, -45.847481450155584], [-73.09772132026256, -45.65480062797418], [-73.22989155293014, -45.528025098680786], [-73.56481272074431, -45.77195560291696]]]}, "id": "27"}, {"type": "Feature", "properties": {"fid": 36, "Nombre_barrio": "28A"}, "geometry": {"type": "Polygon", "coordinates": [[[-73.30245031331295, -45.238824041962886], [-73.2938187879142, -45.3149792712618], [-73.38660768595018, -45.37441092010073], [-73.37822341778947, -45.39601221152823], [-73.64669982237814, -45.34656076393147], [-73.63986653143752, -45.28605017441766], [-73.30245031331295, -45.238824041962886]]]}, "id": "28A"}, {"type": "Feature", "properties": {"fid": 37, "Nombre_barrio": "30B"}, "geometry": {"type": "Polygon", "coordinates": [[[-73.43981294797807, -45.25799771687187], [-73.76520347316445, -45.30070578525082], [-73.69291444795033, -45.0928298818988], [-73.52495934956735, -44.87875006966645], [-73.43981294797807, -45.25799771687187]]]}, "id": "30B"}, {"type": "Feature", "properties": {"fid": 38, "Nombre_barrio": "26A"}, "geometry": {"type": "Polygon", "coordinates": [[[-73.51731685312056, -45.847324104640315], [-73.56472280902122, -45.771966841882126], [-73.69250984519734, -45.714782986115736], [-73.78007262433957, -46.384400542436126], [-73.58046859949484, -46.179401814217194], [-73.51731685312056, -45.847324104640315]]]}, "id": "26A"}, {"type": "Feature", "properties": {"fid": 39, "Nombre_barrio": "25B"}, "geometry": {"type": "Polygon", "coordinates": [[[-73.78006419511559, -46.38439211321211], [-73.43031040276405, -46.34789357319616], [-73.39376128740396, -46.237841624362815], [-73.61262608913933, -46.212444372384056], [-73.78006419511559, -46.38439211321211]]]}, "id": "25B"}, {"type": "Feature", "properties": {"fid": 40, "Nombre_barrio": "25A"}, "geometry": {"type": "Polygon", "coordinates": [[[-73.61262608913931, -46.21251180617623], [-73.39376971662794, -46.237866912034896], [-73.3096123439907, -45.9867434699667], [-73.33712533119906, -45.93050368729085], [-73.61262608913931, -46.21251180617623]]]}, "id": "25A"}, {"type": "Feature", "properties": {"fid": 41, "Nombre_barrio": "24"}, "geometry": {"type": "Polygon", "coordinates": [[[-73.77976074305072, -46.384333108643936], [-74.04733803041015, -46.23786691203489], [-74.01470007499637, -45.87089221500613], [-73.88333904783502, -45.70392614557519], [-73.86499705636282, -45.59549260775412], [-73.78461597608751, -45.455769790362794], [-73.78488571125622, -45.40748719516387], [-73.65426645580884, -45.406661131209695], [-73.77976074305072, -46.384333108643936]]]}, "id": "24"}, {"type": "Feature", "properties": {"fid": 42, "Nombre_barrio": "23B"}, "geometry": {"type": "Polygon", "coordinates": [[[-74.01470007499637, -45.870942790350256], [-74.37425705488566, -45.93460029016562], [-74.46488807157189, -45.61981934828207], [-74.23669211884398, -45.564793373865406], [-74.17788985206538, -45.61981934828207], [-73.86499705636282, -45.5954083155139], [-73.88327161404285, -45.70384185333497], [-74.01470007499637, -45.870942790350256]]]}, "id": "23B"}, {"type": "Feature", "properties": {"fid": 43, "Nombre_barrio": "23A"}, "geometry": {"type": "Polygon", "coordinates": [[[-74.23662468505182, -45.56479337386541], [-73.78427880712663, -45.45528089536952], [-73.86496333946674, -45.595408315513886], [-74.17785613516934, -45.619819348282064], [-74.23662468505182, -45.56479337386541]]]}, "id": "23A"}, {"type": "Feature", "properties": {"fid": 44, "Nombre_barrio": "22D"}, "geometry": {"type": "Polygon", "coordinates": [[[-73.78485199436011, -45.407537770507965], [-73.78459911763942, -45.455331470713595], [-74.46488807157186, -45.61982356289404], [-74.482825460291, -45.55764960650656], [-74.40096083658781, -45.394190094268836], [-74.0648708163762, -45.342670677045405], [-74.02063424870794, -45.410205619910954], [-73.78485199436011, -45.407537770507965]]]}, "id": "22D"}, {"type": "Feature", "properties": {"fid": 45, "Nombre_barrio": "29"}, "geometry": {"type": "Polygon", "coordinates": [[[-73.6396333229062, -45.28423929612377], [-73.65426645580868, -45.40663162892554], [-74.02063424870784, -45.410205619910926], [-74.06480338258396, -45.34270439394146], [-73.6396333229062, -45.28423929612377]]]}, "id": "29"}, {"type": "Feature", "properties": {"fid": 46, "Nombre_barrio": "22C"}, "geometry": {"type": "Polygon", "coordinates": [[[-74.21619224602198, -45.365699317073926], [-74.22124978043526, -45.21950285563358], [-74.42584390590115, -45.21006212472875], [-74.4009439781397, -45.39419009426882], [-74.21619224602198, -45.365699317073926]]]}, "id": "22C"}, {"type": "Feature", "properties": {"fid": 47, "Nombre_barrio": "22A"}, "geometry": {"type": "Polygon", "coordinates": [[[-74.06691068858954, -45.342990987558224], [-74.11131584073829, -45.18465644352596], [-74.15824976009368, -45.16307763002924], [-74.16849969650463, -45.05976906041366], [-74.23215719631999, -45.08296628492264], [-74.4541492401676, -45.04628230197819], [-74.42582704745314, -45.210112700072905], [-74.22124135121133, -45.21949442640957], [-74.21611638300584, -45.36575832164209], [-74.06691068858954, -45.342990987558224]]]}, "id": "22A"}, {"type": "Feature", "properties": {"fid": 48, "Nombre_barrio": "22B"}, "geometry": {"type": "Polygon", "coordinates": [[[-74.16850391111669, -45.0597774896377], [-74.15824554548173, -45.16309448847731], [-74.11131531391185, -45.184656443526], [-74.06690542032516, -45.342982558332025], [-73.76513920033604, -45.30076900442962], [-73.6929513258113, -45.092735755565634], [-74.14799455541717, -45.0506570692476], [-74.16850391111669, -45.0597774896377]]]}, "id": "22B"}, {"type": "Feature", "properties": {"fid": 49, "Nombre_barrio": "21C"}, "geometry": {"type": "Polygon", "coordinates": [[[-73.52497374950002, -44.87866718230186], [-73.69288389201907, -45.092803189357824], [-74.14797769696906, -45.05065706924761], [-74.23206763581297, -45.082957855700094], [-74.45414397189768, -45.04628230198019], [-74.48516351629877, -45.01114929625632], [-73.52497374950002, -44.87866718230186]]]}, "id": "21C"}, {"type": "Feature", "properties": {"fid": 50, "Nombre_barrio": "21D"}, "geometry": {"type": "Polygon", "coordinates": [[[-73.78661686314412, -44.91478640723632], [-73.83226954044748, -44.813736869660076], [-73.96255162693218, -44.813197399322675], [-74.64187964931656, -44.86893142855639], [-74.48512137017869, -45.01112400858422], [-73.78661686314412, -44.91478640723632]]]}, "id": "21D"}, {"type": "Feature", "properties": {"fid": 51, "Nombre_barrio": "21B"}, "geometry": {"type": "Polygon", "coordinates": [[[-73.52497374949992, -44.87866718230184], [-73.78665058004017, -44.91475269034021], [-73.83226954044746, -44.81370315276396], [-73.96265277762039, -44.81304567329023], [-74.04114571171363, -44.634615859191626], [-73.8184118961552, -44.617824844939726], [-73.77946888117334, -44.69196829943759], [-73.76864575752907, -44.67163701109643], [-73.5132402696612, -44.67603706603593], [-73.52497374949992, -44.87866718230184]]]}, "id": "21B"}, {"type": "Feature", "properties": {"fid": 52, "Nombre_barrio": "21A"}, "geometry": {"type": "Polygon", "coordinates": [[[-74.04114571171361, -44.634615859191626], [-73.96264013378433, -44.81305831712622], [-74.6418543616444, -44.86896936006441], [-74.83677173793009, -44.69590053244385], [-74.04114571171361, -44.634615859191626]]]}, "id": "21A"}, {"type": "Feature", "properties": {"fid": 53, "Nombre_barrio": "20"}, "geometry": {"type": "Polygon", "coordinates": [[[-74.83656943655356, -44.69579938175559], [-74.8689376567982, -44.538408910816024], [-74.57479145532497, -44.48055071712871], [-73.92419022840772, -44.55418841818525], [-73.87887472006527, -44.54285954109964], [-73.84893411633895, -44.49086808733169], [-73.70590704313292, -44.5286984447426], [-73.76854460684072, -44.6716496549324], [-73.77946888117329, -44.69198094327356], [-73.81841150103523, -44.61782444981977], [-74.83656943655356, -44.69579938175559]]]}, "id": "20"}, {"type": "Feature", "properties": {"fid": 54, "Nombre_barrio": "23C"}, "geometry": {"type": "Polygon", "coordinates": [[[-74.37423453304865, -45.93462939731912], [-74.30585666778185, -45.97519082331318], [-74.40675447932568, -46.076038059512875], [-74.52004325018191, -46.0756334567598], [-74.53541815479812, -45.96042282282653], [-75.19087461475212, -46.06865405926953], [-75.00177340304167, -45.61504379774737], [-74.48281979690061, -45.55759020681314], [-74.37423453304865, -45.93462939731912]]]}, "id": "23C"}, {"type": "Feature", "properties": {"fid": 55, "Nombre_barrio": "18E"}, "geometry": {"type": "Polygon", "coordinates": [[[-73.51329044988535, -44.675960807899706], [-73.76851892404879, -44.67161132830435], [-73.70590664801307, -44.52871069345868], [-73.51948592954153, -44.58980570917042], [-73.51329044988535, -44.675960807899706]]]}, "id": "18E"}, {"type": "Feature", "properties": {"fid": 56, "Nombre_barrio": "18D"}, "geometry": {"type": "Polygon", "coordinates": [[[-73.92413609698454, -44.554219632655276], [-73.87887116398619, -44.54286546789759], [-73.8489305602599, -44.49087401412963], [-73.70592877472588, -44.52871701537657], [-73.5194195494022, -44.589786743416255], [-73.52913001547557, -44.47917846579902], [-73.75998117376727, -44.391253230025086], [-74.04765373119147, -44.26001021200189], [-73.95585948159145, -44.463474821445914], [-73.92413609698454, -44.554219632655276]]]}, "id": "18D"}, {"type": "Feature", "properties": {"fid": 57, "Nombre_barrio": "19B"}, "geometry": {"type": "Polygon", "coordinates": [[[-73.95574568706715, -44.46377827351071], [-73.92414874082048, -44.55418802306511], [-74.57505341980252, -44.48044917132028], [-74.53226667866662, -44.400489552247194], [-74.22987669609991, -44.38607557916951], [-73.95574568706715, -44.46377827351071]]]}, "id": "19B"}, {"type": "Feature", "properties": {"fid": 58, "Nombre_barrio": "19C"}, "geometry": {"type": "Polygon", "coordinates": [[[-73.95574568706708, -44.463778273510705], [-74.04761579968333, -44.26004814350995], [-73.92259354898839, -44.117880851154155], [-73.96811135870738, -44.0461144378305], [-74.1328858298902, -44.197840470227234], [-74.11354076075962, -44.41913288847789], [-73.95574568706708, -44.463778273510705]]]}, "id": "19C"}, {"type": "Feature", "properties": {"fid": 59, "Nombre_barrio": "19A"}, "geometry": {"type": "Polygon", "coordinates": [[[-74.11354076075962, -44.41905702546168], [-74.22981979883767, -44.38609454492348], [-74.53224771291251, -44.40047058649303], [-74.45972266942685, -44.12402575546616], [-73.96813032446136, -44.046038574814226], [-74.13290479564422, -44.19776460721097], [-74.11354076075962, -44.41905702546168]]]}, "id": "19A"}, {"type": "Feature", "properties": {"fid": 60, "Nombre_barrio": "18C"}, "geometry": {"type": "Polygon", "coordinates": [[[-73.76036048884806, -44.39106357248442], [-73.61756732660864, -44.38948941489832], [-73.67620943812999, -44.30634354914489], [-73.58092548978483, -44.21037683365395], [-73.69934765807051, -43.931731975157305], [-73.79190053783255, -44.02807800572923], [-73.96813032446137, -44.04609547207635], [-73.92259829042685, -44.117880851154034], [-74.04760157536772, -44.26002917775571], [-73.76036048884806, -44.39106357248442]]]}, "id": "18C"}, {"type": "Feature", "properties": {"fid": 61, "Nombre_barrio": "18B"}, "geometry": {"type": "Polygon", "coordinates": [[[-73.7603593034884, -44.391064165164195], [-73.52905296709952, -44.479179058478586], [-73.44256912863337, -44.33079099879455], [-73.3997823874975, -44.00275931675277], [-73.64982688888735, -43.8795577784466], [-73.69928957544866, -43.93182739660728], [-73.5809432701792, -44.21039639208772], [-73.67622721852436, -44.30632517607058], [-73.61756614124894, -44.389490007578026], [-73.7603593034884, -44.391064165164195]]]}, "id": "18B"}, {"type": "Feature", "properties": {"fid": 62, "Nombre_barrio": "18A"}, "geometry": {"type": "Polygon", "coordinates": [[[-73.96805327608543, -44.04605813324796], [-73.79182348945659, -44.028078598408925], [-73.64980792313324, -43.87957674420061], [-73.96145319367616, -43.72785071180386], [-74.35214772709779, -43.95339145896163], [-73.96805327608543, -44.04605813324796]]]}, "id": "18A"}]}