{
"type": "FeatureCollection",
"name": "barrios2",
"crs": { "type": "name", "properties": { "name": "urn:ogc:def:crs:OGC:1.3:CRS84" } },
"features": [
{ "type": "Feature", "properties": { "fid": 1, "Nombre_barrio": "1" }, "geometry": { "type": "Polygon", "coordinates": [ [ [ -72.647512556066616, -41.694163965241557 ], [ -72.436995392468006, -41.653974324918181 ], [ -72.329823018272336, -41.358293399681941 ], [ -72.234133398454787, -41.401353728599837 ], [ -72.325038537281458, -41.732439813168575 ], [ -72.627417735904928, -41.750620840933912 ], [ -72.64655565986844, -41.730526020772224 ], [ -72.647512556066616, -41.694163965241557 ] ] ] } },
{ "type": "Feature", "properties": { "fid": 2, "Nombre_barrio": "2" }, "geometry": { "type": "Polygon", "coordinates": [ [ [ -72.586630035457674, -41.68268121086345 ], [ -72.804682756616955, -41.429701778470758 ], [ -73.147730043662946, -41.487474386435593 ], [ -73.00742513860547, -41.867212662080391 ], [ -72.806835773062886, -41.970736869520529 ], [ -72.627412129090928, -41.75062457880923 ], [ -72.646555192633656, -41.730525553537248 ], [ -72.647513957769604, -41.694170973758169 ], [ -72.586630035457674, -41.68268121086345 ] ] ] } },
{ "type": "Feature", "properties": { "fid": 3, "Nombre_barrio": "3A" }, "geometry": { "type": "Polygon", "coordinates": [ [ [ -73.007426540307407, -41.867174816087172 ], [ -73.046360254370555, -41.900748416290234 ], [ -73.161883043045293, -41.801530241742171 ], [ -73.129924205176593, -41.768797663588259 ], [ -73.257826838415184, -41.701986872001754 ], [ -73.094063024999755, -41.632552091621847 ], [ -73.007426540307407, -41.867174816087172 ] ] ] } },
{ "type": "Feature", "properties": { "fid": 4, "Nombre_barrio": "3B" }, "geometry": { "type": "Polygon", "coordinates": [ [ [ -73.046292972606551, -41.90073720266286 ], [ -73.097343010991494, -41.945437524576541 ], [ -73.479829326180862, -41.799225841327406 ], [ -73.257732486254, -41.701973468212842 ], [ -73.129925757453634, -41.768800102880668 ], [ -73.161881597538681, -41.801530972708562 ], [ -73.046292972606551, -41.90073720266286 ] ] ] } },
{ "type": "Feature", "properties": { "fid": 5, "Nombre_barrio": "6" }, "geometry": { "type": "Polygon", "coordinates": [ [ [ -73.358579489449639, -41.845594573583611 ], [ -73.411481090439779, -42.091155928682703 ], [ -73.600787926176167, -41.946128903835479 ], [ -73.483489004061141, -41.799664913971434 ], [ -73.479231329937193, -41.799239146559039 ], [ -73.358579489449639, -41.845594573583611 ] ] ] } },
{ "type": "Feature", "properties": { "fid": 6, "Nombre_barrio": "5" }, "geometry": { "type": "Polygon", "coordinates": [ [ [ -73.534155326136229, -41.791468891282804 ], [ -73.749859741441085, -41.922285928741324 ], [ -73.984191481038266, -41.862199502666996 ], [ -74.022350885374223, -41.836068027731244 ], [ -73.978603283750601, -41.739205941411257 ], [ -73.534155326136229, -41.791468891282804 ] ] ] } },
{ "type": "Feature", "properties": { "fid": 7, "Nombre_barrio": "4A" }, "geometry": { "type": "Polygon", "coordinates": [ [ [ -73.489183643201955, -41.543672257268639 ], [ -73.513931374047459, -41.665175632581011 ], [ -73.808988190837539, -41.640427901735528 ], [ -73.836769514496353, -41.538243722760605 ], [ -73.489183643201955, -41.543672257268639 ] ] ] } },
{ "type": "Feature", "properties": { "fid": 8, "Nombre_barrio": "7" }, "geometry": { "type": "Polygon", "coordinates": [ [ [ -73.538838767672601, -42.122928821832744 ], [ -73.411427869513247, -42.09099626590308 ], [ -73.191731884717129, -42.129155670239058 ], [ -73.417495055139852, -42.280675648125303 ], [ -73.538838767672601, -42.122928821832744 ] ] ] } },
{ "type": "Feature", "properties": { "fid": 9, "Nombre_barrio": "8" }, "geometry": { "type": "Polygon", "coordinates": [ [ [ -73.417175729580578, -42.280835310904948 ], [ -73.3489198912809, -42.337196272120799 ], [ -73.102400559503948, -42.427804899571235 ], [ -72.907332558468653, -42.180607000980736 ], [ -73.192170957361256, -42.129195585933985 ], [ -73.417175729580578, -42.280835310904948 ] ] ] } },
{ "type": "Feature", "properties": { "fid": 10, "Nombre_barrio": "9A" }, "geometry": { "type": "Polygon", "coordinates": [ [ [ -73.34911946975555, -42.337236187815741 ], [ -73.340338016874867, -42.392479509574073 ], [ -73.385522583515311, -42.420420496012518 ], [ -73.363010131584929, -42.584793327660478 ], [ -73.388875501887952, -42.584553833491 ], [ -73.390072972735325, -42.554138073967998 ], [ -73.689680178745391, -42.36445869174581 ], [ -73.417375308055156, -42.280635732430433 ], [ -73.34911946975555, -42.337236187815741 ] ] ] } },
{ "type": "Feature", "properties": { "fid": 11, "Nombre_barrio": "9B" }, "geometry": { "type": "Polygon", "coordinates": [ [ [ -73.10238060165652, -42.427894709884818 ], [ -73.055050566414522, -42.525518520716041 ], [ -73.371093059804636, -42.525608331029581 ], [ -73.385552520286524, -42.420440453859975 ], [ -73.340288122256254, -42.392352278296528 ], [ -73.349078306695148, -42.33711893546193 ], [ -73.10238060165652, -42.427894709884818 ] ] ] } },
{ "type": "Feature", "properties": { "fid": 12, "Nombre_barrio": "9C" }, "geometry": { "type": "Polygon", "coordinates": [ [ [ -73.370902212888353, -42.525720593921591 ], [ -73.355409933800601, -42.636187279590814 ], [ -73.253565038232381, -42.705161600398917 ], [ -73.055129150438745, -42.525585878451253 ], [ -73.370902212888353, -42.525720593921591 ] ] ] } },
{ "type": "Feature", "properties": { "fid": 13, "Nombre_barrio": "10A" }, "geometry": { "type": "Polygon", "coordinates": [ [ [ -73.253565038232395, -42.705161600398917 ], [ -73.563477977722741, -42.705094242663748 ], [ -73.592374446108138, -42.636658783736941 ], [ -73.878779536026158, -42.535487465520362 ], [ -73.689672694552783, -42.364499854806091 ], [ -73.390065488542604, -42.554280273631115 ], [ -73.388878308460278, -42.584557575587425 ], [ -73.362777186084116, -42.58476806850981 ], [ -73.355401514083653, -42.636162020440153 ], [ -73.253565038232395, -42.705161600398917 ] ] ] } },
{ "type": "Feature", "properties": { "fid": 14, "Nombre_barrio": "10B" }, "geometry": { "type": "Polygon", "coordinates": [ [ [ -73.253573457949088, -42.705170020115958 ], [ -73.563452718572364, -42.705068983513215 ], [ -73.592349186957833, -42.636667203453896 ], [ -73.878754276876393, -42.535529564104728 ], [ -73.645814389244578, -42.739808735424205 ], [ -73.405751421119049, -42.851656254664505 ], [ -73.253573457949088, -42.705170020115958 ] ] ] } },
{ "type": "Feature", "properties": { "fid": 15, "Nombre_barrio": "11" }, "geometry": { "type": "Polygon", "coordinates": [ [ [ -73.645814389244549, -42.739783476273558 ], [ -73.777692414979327, -42.842411405513253 ], [ -73.667764591191229, -43.041655586129231 ], [ -73.366018777089039, -43.17406405402842 ], [ -73.185415849679814, -42.95547136398654 ], [ -73.645814389244549, -42.739783476273558 ] ] ] } },
{ "type": "Feature", "properties": { "fid": 16, "Nombre_barrio": "12A" }, "geometry": { "type": "Polygon", "coordinates": [ [ [ -73.365867222184889, -43.174114572329799 ], [ -73.553593230087756, -43.327185025490628 ], [ -73.847003524463361, -43.220894519401412 ], [ -73.668370810807687, -43.040746256704537 ], [ -73.667613036287094, -43.041706104430631 ], [ -73.365867222184889, -43.174114572329799 ] ] ] } },
{ "type": "Feature", "properties": { "fid": 17, "Nombre_barrio": "12B" }, "geometry": { "type": "Polygon", "coordinates": [ [ [ -73.553580600512447, -43.327273432518076 ], [ -73.75651261712872, -43.521017433072011 ], [ -73.90211899126173, -43.355140590513024 ], [ -73.846763562532004, -43.220673501832849 ], [ -73.553580600512447, -43.327273432518076 ] ] ] } },
{ "type": "Feature", "properties": { "fid": 18, "Nombre_barrio": "12C" }, "geometry": { "type": "Polygon", "coordinates": [ [ [ -73.902005325083636, -43.355083757423976 ], [ -74.388553400396859, -43.280973409309439 ], [ -74.274432557594778, -43.503759118365359 ], [ -73.756569450217853, -43.520809045078828 ], [ -73.902005325083636, -43.355083757423976 ] ] ] } },
{ "type": "Feature", "properties": { "fid": 19, "Nombre_barrio": "17B" }, "geometry": { "type": "Polygon", "coordinates": [ [ [ -72.806803282644339, -41.97074337446886 ], [ -72.615844103453512, -42.127830032588882 ], [ -72.435796877359365, -42.142151971028198 ], [ -72.420110944783005, -41.952102121262129 ], [ -72.806803282644339, -41.97074337446886 ] ] ] } },
{ "type": "Feature", "properties": { "fid": 20, "Nombre_barrio": "17A" }, "geometry": { "type": "Polygon", "coordinates": [ [ [ -72.615787270364493, -42.127830032588875 ], [ -72.851530923722621, -42.245588193089851 ], [ -72.77696591089574, -42.306740596902131 ], [ -72.618401592460543, -42.237063229733124 ], [ -72.396752545185478, -42.543961910575476 ], [ -72.229322264859292, -42.159827061721117 ], [ -72.615787270364493, -42.127830032588875 ] ] ] } },
{ "type": "Feature", "properties": { "fid": 21, "Nombre_barrio": "16" }, "geometry": { "type": "Polygon", "coordinates": [ [ [ -72.851303591366431, -42.246440689425512 ], [ -72.863579538600092, -42.60329565553829 ], [ -72.829650184440297, -42.624096566128713 ], [ -72.785320374985304, -42.517705023436697 ], [ -72.49206163551375, -42.609433629155134 ], [ -72.440911855373358, -42.573714032690432 ], [ -72.851303591366431, -42.246440689425512 ] ] ] } },
{ "type": "Feature", "properties": { "fid": 22, "Nombre_barrio": "14" }, "geometry": { "type": "Polygon", "coordinates": [ [ [ -72.863536913783335, -42.603295655538261 ], [ -72.877645728138717, -43.102901133059476 ], [ -72.677969773915635, -43.113067151862388 ], [ -72.714925490067088, -42.693191394134871 ], [ -72.863536913783335, -42.603295655538261 ] ] ] } },
{ "type": "Feature", "properties": { "fid": 23, "Nombre_barrio": "15" }, "geometry": { "type": "Polygon", "coordinates": [ [ [ -72.863387726924572, -42.603423529988454 ], [ -73.003282375608563, -42.515957405948363 ], [ -73.189595449769968, -42.743701802023509 ], [ -72.870548696144212, -42.853034457073612 ], [ -72.863387726924572, -42.603423529988454 ] ] ] } },
{ "type": "Feature", "properties": { "fid": 24, "Nombre_barrio": "13" }, "geometry": { "type": "Polygon", "coordinates": [ [ [ -72.901813999254998, -43.1236807312415 ], [ -72.744528425323267, -43.162043066346797 ], [ -73.049125366059357, -43.458711791161122 ], [ -73.138765355755382, -43.444773476072861 ], [ -72.901813999254998, -43.1236807312415 ] ] ] } },
{ "type": "Feature", "properties": { "fid": 25, "Nombre_barrio": "35" }, "geometry": { "type": "Polygon", "coordinates": [ [ [ -72.860382677341292, -43.793210040871294 ], [ -73.004028309902239, -43.890820871305884 ], [ -73.194987489093066, -43.840097339333326 ], [ -73.014258265930323, -43.745896494241428 ], [ -72.860382677341292, -43.793210040871294 ] ] ] } },
{ "type": "Feature", "properties": { "fid": 26, "Nombre_barrio": "34" }, "geometry": { "type": "Polygon", "coordinates": [ [ [ -73.004028309902253, -43.890820871305898 ], [ -73.055178090042631, -44.119503013350219 ], [ -73.239317298548059, -44.192604574134208 ], [ -73.186888773904144, -44.249828390666259 ], [ -73.312951669541789, -44.251853069463493 ], [ -73.309861370324953, -43.92758477578176 ], [ -73.194667802967103, -43.840097339333283 ], [ -73.004028309902253, -43.890820871305898 ] ] ] } },
{ "type": "Feature", "properties": { "fid": 27, "Nombre_barrio": "33" }, "geometry": { "type": "Polygon", "coordinates": [ [ [ -73.055178090042517, -44.119503013350183 ], [ -73.239307308356558, -44.192601244070374 ], [ -73.186898764095403, -44.249825060602511 ], [ -73.312895058456974, -44.251823098889218 ], [ -73.307460394317076, -44.289546061742797 ], [ -73.116447934104997, -44.445393048108251 ], [ -72.733144269177401, -44.52323661975953 ], [ -72.654981011400267, -44.42221580398212 ], [ -73.055178090042517, -44.119503013350183 ] ] ] } },
{ "type": "Feature", "properties": { "fid": 28, "Nombre_barrio": "32" }, "geometry": { "type": "Polygon", "coordinates": [ [ [ -72.733144269177373, -44.523156698228007 ], [ -72.571183285654556, -44.318517616900479 ], [ -72.52071283853158, -44.342254311746913 ], [ -72.536177654870897, -44.530469518357513 ], [ -72.682913586648795, -44.739544244681632 ], [ -73.130554084409269, -44.974513547201873 ], [ -73.231734743249618, -44.960367436131769 ], [ -73.295032596173428, -44.925481687645345 ], [ -73.110893387667787, -44.835569964742199 ], [ -72.9512101677918, -44.560799739550184 ], [ -72.733144269177373, -44.523156698228007 ] ] ] } },
{ "type": "Feature", "properties": { "fid": 29, "Nombre_barrio": "31B" }, "geometry": { "type": "Polygon", "coordinates": [ [ [ -73.116467914487771, -44.445353087342546 ], [ -73.102801332606489, -44.574646144877285 ], [ -73.162502716614156, -44.71194134575039 ], [ -73.466763986918409, -44.658443870623039 ], [ -73.307440413934088, -44.289625983274313 ], [ -73.116467914487771, -44.445353087342546 ] ] ] } },
{ "type": "Feature", "properties": { "fid": 30, "Nombre_barrio": "31A" }, "geometry": { "type": "Polygon", "coordinates": [ [ [ -73.162592628337137, -44.711941345750404 ], [ -73.110893387667844, -44.835480053019353 ], [ -73.294672949281917, -44.925391775922563 ], [ -73.420909008237928, -44.847348400442655 ], [ -73.466943810364342, -44.658174135454423 ], [ -73.162592628337137, -44.711941345750404 ] ] ] } },
{ "type": "Feature", "properties": { "fid": 31, "Nombre_barrio": "30A" }, "geometry": { "type": "Polygon", "coordinates": [ [ [ -73.231734743249703, -44.959558230625781 ], [ -73.294672949281917, -44.925032129030974 ], [ -73.525026783359777, -44.878637680012964 ], [ -73.439790470047612, -45.258784444447471 ], [ -73.274352899905821, -45.234688102709427 ], [ -73.231734743249703, -44.959558230625781 ] ] ] } },
{ "type": "Feature", "properties": { "fid": 32, "Nombre_barrio": "28B" }, "geometry": { "type": "Polygon", "coordinates": [ [ [ -73.302450313313074, -45.238824041962992 ], [ -73.282579822551455, -45.413612431286644 ], [ -72.933362690795732, -45.479427812451704 ], [ -72.698153623681151, -45.478978253837191 ], [ -72.705886031850824, -45.356518487243122 ], [ -72.827087034324265, -45.357057957580544 ], [ -73.145914003738724, -45.219133374647157 ], [ -73.302450313313074, -45.238824041962992 ] ] ] } },
{ "type": "Feature", "properties": { "fid": 33, "Nombre_barrio": "28C" }, "geometry": { "type": "Polygon", "coordinates": [ [ [ -73.282579822551455, -45.413522519563692 ], [ -73.378066072274564, -45.396439292212094 ], [ -73.386697597673262, -45.374321008377926 ], [ -73.293009582408231, -45.314439800924454 ], [ -73.282579822551455, -45.413522519563692 ] ] ] } },
{ "type": "Feature", "properties": { "fid": 34, "Nombre_barrio": "26B" }, "geometry": { "type": "Polygon", "coordinates": [ [ [ -73.282534866690014, -45.413657387148035 ], [ -73.564812720744342, -45.771955602916947 ], [ -73.692487367266779, -45.714771747150564 ], [ -73.646812212031961, -45.346493330139381 ], [ -73.282534866690014, -45.413657387148035 ] ] ] } },
{ "type": "Feature", "properties": { "fid": 35, "Nombre_barrio": "27" }, "geometry": { "type": "Polygon", "coordinates": [ [ [ -73.564812720744314, -45.771955602916961 ], [ -73.517339331051474, -45.847481450155584 ], [ -73.097721320262565, -45.654800627974183 ], [ -73.229891552930141, -45.528025098680786 ], [ -73.564812720744314, -45.771955602916961 ] ] ] } },
{ "type": "Feature", "properties": { "fid": 36, "Nombre_barrio": "28A" }, "geometry": { "type": "Polygon", "coordinates": [ [ [ -73.302450313312946, -45.238824041962886 ], [ -73.293818787914205, -45.314979271261798 ], [ -73.386607685950182, -45.374410920100729 ], [ -73.378223417789471, -45.39601221152823 ], [ -73.646699822378139, -45.346560763931471 ], [ -73.639866531437519, -45.28605017441766 ], [ -73.302450313312946, -45.238824041962886 ] ] ] } },
{ "type": "Feature", "properties": { "fid": 37, "Nombre_barrio": "30B" }, "geometry": { "type": "Polygon", "coordinates": [ [ [ -73.439812947978069, -45.25799771687187 ], [ -73.765203473164448, -45.30070578525082 ], [ -73.692914447950329, -45.092829881898801 ], [ -73.524959349567354, -44.878750069666452 ], [ -73.439812947978069, -45.25799771687187 ] ] ] } },
{ "type": "Feature", "properties": { "fid": 38, "Nombre_barrio": "26A" }, "geometry": { "type": "Polygon", "coordinates": [ [ [ -73.517316853120562, -45.847324104640315 ], [ -73.56472280902122, -45.771966841882126 ], [ -73.692509845197335, -45.714782986115736 ], [ -73.780072624339567, -46.384400542436126 ], [ -73.580468599494836, -46.179401814217194 ], [ -73.517316853120562, -45.847324104640315 ] ] ] } },
{ "type": "Feature", "properties": { "fid": 39, "Nombre_barrio": "25B" }, "geometry": { "type": "Polygon", "coordinates": [ [ [ -73.780064195115585, -46.384392113212108 ], [ -73.43031040276405, -46.34789357319616 ], [ -73.393761287403962, -46.237841624362815 ], [ -73.612626089139326, -46.212444372384056 ], [ -73.780064195115585, -46.384392113212108 ] ] ] } },
{ "type": "Feature", "properties": { "fid": 40, "Nombre_barrio": "25A" }, "geometry": { "type": "Polygon", "coordinates": [ [ [ -73.612626089139312, -46.212511806176231 ], [ -73.393769716627943, -46.237866912034896 ], [ -73.309612343990693, -45.986743469966697 ], [ -73.337125331199061, -45.930503687290852 ], [ -73.612626089139312, -46.212511806176231 ] ] ] } },
{ "type": "Feature", "properties": { "fid": 41, "Nombre_barrio": "24" }, "geometry": { "type": "Polygon", "coordinates": [ [ [ -73.779760743050716, -46.384333108643936 ], [ -74.047338030410145, -46.237866912034889 ], [ -74.014700074996369, -45.87089221500613 ], [ -73.883339047835022, -45.703926145575188 ], [ -73.864997056362824, -45.595492607754117 ], [ -73.784615976087508, -45.455769790362794 ], [ -73.784885711256223, -45.407487195163867 ], [ -73.654266455808838, -45.406661131209695 ], [ -73.779760743050716, -46.384333108643936 ] ] ] } },
{ "type": "Feature", "properties": { "fid": 42, "Nombre_barrio": "23B" }, "geometry": { "type": "Polygon", "coordinates": [ [ [ -74.014700074996369, -45.870942790350256 ], [ -74.374257054885661, -45.934600290165619 ], [ -74.464888071571892, -45.619819348282071 ], [ -74.236692118843976, -45.564793373865406 ], [ -74.177889852065377, -45.619819348282071 ], [ -73.864997056362824, -45.5954083155139 ], [ -73.883271614042854, -45.703841853334971 ], [ -74.014700074996369, -45.870942790350256 ] ] ] } },
{ "type": "Feature", "properties": { "fid": 43, "Nombre_barrio": "23A" }, "geometry": { "type": "Polygon", "coordinates": [ [ [ -74.236624685051822, -45.564793373865413 ], [ -73.784278807126626, -45.455280895369519 ], [ -73.86496333946674, -45.595408315513886 ], [ -74.177856135169336, -45.619819348282064 ], [ -74.236624685051822, -45.564793373865413 ] ] ] } },
{ "type": "Feature", "properties": { "fid": 44, "Nombre_barrio": "22D" }, "geometry": { "type": "Polygon", "coordinates": [ [ [ -73.78485199436011, -45.407537770507965 ], [ -73.784599117639416, -45.455331470713595 ], [ -74.464888071571863, -45.619823562894041 ], [ -74.482825460290996, -45.557649606506558 ], [ -74.400960836587814, -45.394190094268836 ], [ -74.0648708163762, -45.342670677045405 ], [ -74.020634248707935, -45.410205619910954 ], [ -73.78485199436011, -45.407537770507965 ] ] ] } },
{ "type": "Feature", "properties": { "fid": 45, "Nombre_barrio": "29" }, "geometry": { "type": "Polygon", "coordinates": [ [ [ -73.639633322906207, -45.284239296123772 ], [ -73.654266455808681, -45.406631628925538 ], [ -74.020634248707836, -45.410205619910926 ], [ -74.06480338258396, -45.34270439394146 ], [ -73.639633322906207, -45.284239296123772 ] ] ] } },
{ "type": "Feature", "properties": { "fid": 46, "Nombre_barrio": "22C" }, "geometry": { "type": "Polygon", "coordinates": [ [ [ -74.216192246021976, -45.365699317073926 ], [ -74.221249780435258, -45.219502855633579 ], [ -74.425843905901147, -45.210062124728751 ], [ -74.400943978139694, -45.394190094268822 ], [ -74.216192246021976, -45.365699317073926 ] ] ] } },
{ "type": "Feature", "properties": { "fid": 47, "Nombre_barrio": "22A" }, "geometry": { "type": "Polygon", "coordinates": [ [ [ -74.066910688589545, -45.342990987558224 ], [ -74.111315840738285, -45.184656443525959 ], [ -74.158249760093682, -45.163077630029242 ], [ -74.168499696504625, -45.059769060413657 ], [ -74.232157196319989, -45.082966284922641 ], [ -74.454149240167595, -45.046282301978188 ], [ -74.42582704745314, -45.210112700072905 ], [ -74.221241351211333, -45.219494426409568 ], [ -74.21611638300584, -45.36575832164209 ], [ -74.066910688589545, -45.342990987558224 ] ] ] } },
{ "type": "Feature", "properties": { "fid": 48, "Nombre_barrio": "22B" }, "geometry": { "type": "Polygon", "coordinates": [ [ [ -74.168503911116687, -45.059777489637703 ], [ -74.158245545481734, -45.163094488477313 ], [ -74.111315313911845, -45.184656443526002 ], [ -74.066905420325156, -45.342982558332025 ], [ -73.765139200336037, -45.300769004429618 ], [ -73.692951325811293, -45.092735755565634 ], [ -74.147994555417171, -45.050657069247599 ], [ -74.168503911116687, -45.059777489637703 ] ] ] } },
{ "type": "Feature", "properties": { "fid": 49, "Nombre_barrio": "21C" }, "geometry": { "type": "Polygon", "coordinates": [ [ [ -73.52497374950002, -44.878667182301861 ], [ -73.692883892019069, -45.092803189357824 ], [ -74.147977696969065, -45.050657069247613 ], [ -74.232067635812967, -45.082957855700094 ], [ -74.454143971897679, -45.046282301980192 ], [ -74.485163516298769, -45.01114929625632 ], [ -73.52497374950002, -44.878667182301861 ] ] ] } },
{ "type": "Feature", "properties": { "fid": 50, "Nombre_barrio": "21D" }, "geometry": { "type": "Polygon", "coordinates": [ [ [ -73.786616863144118, -44.914786407236321 ], [ -73.832269540447484, -44.813736869660076 ], [ -73.962551626932182, -44.813197399322675 ], [ -74.641879649316564, -44.868931428556387 ], [ -74.485121370178689, -45.011124008584218 ], [ -73.786616863144118, -44.914786407236321 ] ] ] } },
{ "type": "Feature", "properties": { "fid": 51, "Nombre_barrio": "21B" }, "geometry": { "type": "Polygon", "coordinates": [ [ [ -73.524973749499921, -44.878667182301839 ], [ -73.786650580040174, -44.914752690340208 ], [ -73.832269540447456, -44.813703152763964 ], [ -73.962652777620391, -44.813045673290233 ], [ -74.041145711713625, -44.634615859191626 ], [ -73.818411896155197, -44.617824844939726 ], [ -73.779468881173344, -44.69196829943759 ], [ -73.768645757529072, -44.671637011096429 ], [ -73.513240269661196, -44.676037066035931 ], [ -73.524973749499921, -44.878667182301839 ] ] ] } },
{ "type": "Feature", "properties": { "fid": 52, "Nombre_barrio": "21A" }, "geometry": { "type": "Polygon", "coordinates": [ [ [ -74.041145711713611, -44.634615859191626 ], [ -73.962640133784333, -44.81305831712622 ], [ -74.641854361644405, -44.868969360064412 ], [ -74.836771737930093, -44.695900532443851 ], [ -74.041145711713611, -44.634615859191626 ] ] ] } },
{ "type": "Feature", "properties": { "fid": 53, "Nombre_barrio": "20" }, "geometry": { "type": "Polygon", "coordinates": [ [ [ -74.83656943655356, -44.695799381755592 ], [ -74.868937656798195, -44.538408910816024 ], [ -74.57479145532497, -44.480550717128708 ], [ -73.924190228407724, -44.554188418185248 ], [ -73.878874720065269, -44.542859541099638 ], [ -73.848934116338953, -44.490868087331691 ], [ -73.705907043132925, -44.528698444742602 ], [ -73.76854460684072, -44.671649654932402 ], [ -73.779468881173287, -44.691980943273563 ], [ -73.818411501035229, -44.617824449819771 ], [ -74.83656943655356, -44.695799381755592 ] ] ] } },
{ "type": "Feature", "properties": { "fid": 54, "Nombre_barrio": "23C" }, "geometry": { "type": "Polygon", "coordinates": [ [ [ -74.37423453304865, -45.934629397319121 ], [ -74.305856667781853, -45.975190823313177 ], [ -74.406754479325684, -46.076038059512875 ], [ -74.520043250181914, -46.075633456759803 ], [ -74.535418154798123, -45.96042282282653 ], [ -75.190874614752119, -46.068654059269527 ], [ -75.001773403041668, -45.615043797747369 ], [ -74.482819796900614, -45.557590206813138 ], [ -74.37423453304865, -45.934629397319121 ] ] ] } },
{ "type": "Feature", "properties": { "fid": 55, "Nombre_barrio": "18E" }, "geometry": { "type": "Polygon", "coordinates": [ [ [ -73.513290449885346, -44.675960807899706 ], [ -73.768518924048792, -44.671611328304351 ], [ -73.70590664801307, -44.528710693458677 ], [ -73.519485929541531, -44.58980570917042 ], [ -73.513290449885346, -44.675960807899706 ] ] ] } },
{ "type": "Feature", "properties": { "fid": 56, "Nombre_barrio": "18D" }, "geometry": { "type": "Polygon", "coordinates": [ [ [ -73.92413609698454, -44.554219632655276 ], [ -73.87887116398619, -44.542865467897592 ], [ -73.848930560259902, -44.490874014129631 ], [ -73.705928774725876, -44.528717015376571 ], [ -73.519419549402201, -44.589786743416255 ], [ -73.529130015475573, -44.479178465799023 ], [ -73.759981173767272, -44.391253230025086 ], [ -74.047653731191474, -44.260010212001887 ], [ -73.955859481591446, -44.463474821445914 ], [ -73.92413609698454, -44.554219632655276 ] ] ] } },
{ "type": "Feature", "properties": { "fid": 57, "Nombre_barrio": "19B" }, "geometry": { "type": "Polygon", "coordinates": [ [ [ -73.95574568706715, -44.463778273510712 ], [ -73.924148740820485, -44.554188023065109 ], [ -74.575053419802515, -44.480449171320281 ], [ -74.532266678666616, -44.400489552247194 ], [ -74.229876696099907, -44.386075579169507 ], [ -73.95574568706715, -44.463778273510712 ] ] ] } },
{ "type": "Feature", "properties": { "fid": 58, "Nombre_barrio": "19C" }, "geometry": { "type": "Polygon", "coordinates": [ [ [ -73.955745687067079, -44.463778273510705 ], [ -74.047615799683328, -44.260048143509948 ], [ -73.922593548988388, -44.117880851154155 ], [ -73.968111358707375, -44.046114437830497 ], [ -74.132885829890199, -44.197840470227234 ], [ -74.113540760759619, -44.41913288847789 ], [ -73.955745687067079, -44.463778273510705 ] ] ] } },
{ "type": "Feature", "properties": { "fid": 59, "Nombre_barrio": "19A" }, "geometry": { "type": "Polygon", "coordinates": [ [ [ -74.113540760759619, -44.419057025461683 ], [ -74.229819798837667, -44.38609454492348 ], [ -74.532247712912508, -44.400470586493029 ], [ -74.459722669426853, -44.124025755466157 ], [ -73.968130324461356, -44.046038574814226 ], [ -74.132904795644222, -44.197764607210971 ], [ -74.113540760759619, -44.419057025461683 ] ] ] } },
{ "type": "Feature", "properties": { "fid": 60, "Nombre_barrio": "18C" }, "geometry": { "type": "Polygon", "coordinates": [ [ [ -73.760360488848065, -44.39106357248442 ], [ -73.617567326608636, -44.389489414898321 ], [ -73.676209438129987, -44.306343549144891 ], [ -73.580925489784832, -44.210376833653953 ], [ -73.699347658070508, -43.931731975157305 ], [ -73.791900537832547, -44.028078005729228 ], [ -73.96813032446137, -44.046095472076352 ], [ -73.922598290426848, -44.117880851154034 ], [ -74.047601575367722, -44.260029177755712 ], [ -73.760360488848065, -44.39106357248442 ] ] ] } },
{ "type": "Feature", "properties": { "fid": 61, "Nombre_barrio": "18B" }, "geometry": { "type": "Polygon", "coordinates": [ [ [ -73.7603593034884, -44.391064165164195 ], [ -73.529052967099517, -44.479179058478586 ], [ -73.442569128633366, -44.330790998794548 ], [ -73.399782387497496, -44.002759316752773 ], [ -73.649826888887347, -43.879557778446603 ], [ -73.69928957544866, -43.931827396607282 ], [ -73.580943270179205, -44.210396392087723 ], [ -73.67622721852436, -44.30632517607058 ], [ -73.617566141248943, -44.389490007578026 ], [ -73.7603593034884, -44.391064165164195 ] ] ] } },
{ "type": "Feature", "properties": { "fid": 62, "Nombre_barrio": "18A" }, "geometry": { "type": "Polygon", "coordinates": [ [ [ -73.968053276085428, -44.046058133247961 ], [ -73.79182348945659, -44.028078598408925 ], [ -73.649807923133238, -43.879576744200612 ], [ -73.961453193676164, -43.72785071180386 ], [ -74.352147727097787, -43.953391458961633 ], [ -73.968053276085428, -44.046058133247961 ] ] ] } }
]
}
